NORAD_CAT_ID,OBJECT_NAME,OBJECT_TYPE,EPOCH,MEAN_MOTION,ECCENTRICITY,INCLINATION,RA_OF_ASC_NODE,ARG_OF_PERICENTER,MEAN_ANOMALY,BSTAR,MEAN_MOTION_DOT,MEAN_MOTION_DDOT,TLE_LINE0,TLE_LINE1,TLE_LINE2,SEMIMAJOR_AXIS,PERIOD,APOGEE,PERIGEE,DECAYED
55951.0,STARLINK-5908,PAYLOAD,2023-04-04 22:00:00,15.69882264,0.0003845,69.9956,130.0342,267.9097,291.4065,0.00071673,0.00086721,0.0,0 STARLINK-5908,1 55951U 23037AP  23094.91667824  .00086721  00000-0  71673-3 0  9992,2 55951  69.9956 130.0342 0003845 267.9097 291.4065 15.69882264  1306,6737.371,91.727,361.826,356.645,0.0
55951.0,STARLINK-5908,PAYLOAD,2023-04-05 06:00:00,15.69958608,0.0003675,69.9964,129.0969,269.7396,12.8988,-0.00068916,-0.00082395,0.0,0 STARLINK-5908,1 55951U 23037AP  23095.25001157 -.00082395  00000-0 -68916-3 0  9992,2 55951  69.9964 129.0969 0003675 269.7396  12.8988 15.69958608  3432,6737.152,91.722,361.493,356.542,0.0
55951.0,STARLINK-5908,PAYLOAD,2023-04-05 14:00:01,15.69934356,0.0003517,69.9966,128.1594,274.4414,91.5361,-7.5185e-05,-9.247e-05,0.0,0 STARLINK-5908,1 55951U 23037AP  23095.58334491 -.00009247  00000-0 -75185-4 0  9990,2 55951  69.9966 128.1594 0003517 274.4414  91.5361 15.69934356  1304,6737.222,91.724,361.456,356.717,0.0
55951.0,STARLINK-5908,PAYLOAD,2023-04-05 16:00:00,15.69971144,0.0003429,69.9969,127.9251,272.7529,204.0507,-0.00081371,-0.00097123,0.0,0 STARLINK-5908,1 55951U 23037AP  23095.66667824 -.00097123  00000-0 -81371-3 0  9991,2 55951  69.9969 127.9251 0003429 272.7529 204.0507 15.69971144  3495,6737.117,91.721,361.292,356.671,0.0
55951.0,STARLINK-5908,PAYLOAD,2023-04-05 22:00:00,15.69856218,0.0003449,69.9967,127.2221,265.5051,183.8366,0.00099505,0.00120833,0.0,0 STARLINK-5908,1 55951U 23037AP  23095.91667824  .00120833  00000-0  99505-3 0  9990,2 55951  69.9967 127.2221 0003449 265.5051 183.8366 15.69856218  1304,6737.445,91.728,361.634,356.987,0.0
55951.0,STARLINK-5908,PAYLOAD,2023-04-06 10:00:00,15.69894499,0.0003382,69.9982,125.8161,272.0979,122.2195,0.00046279,0.00055736,0.0,0 STARLINK-5908,1 55951U 23037AP  23096.41667824  .00055736  00000-0  46279-3 0  9995,2 55951  69.9982 125.8161 0003382 272.0979 122.2195 15.69894499  3612,6737.336,91.726,361.479,356.922,0.0
55951.0,STARLINK-5908,PAYLOAD,2023-04-06 14:00:01,15.69931336,0.0003422,69.9983,125.3473,271.8347,344.2078,-2.1106e-05,-2.751e-05,0.0,0 STARLINK-5908,1 55951U 23037AP  23096.58335648 -.00002751  00000-0 -21106-4 0  9993,2 55951  69.9983 125.3473 0003422 271.8347 344.2078 15.69931336  1307,6737.23,91.724,361.401,356.79,0.0
55951.0,STARLINK-5908,PAYLOAD,2023-04-06 22:00:00,15.69916835,0.0003377,69.9989,124.4102,266.3878,72.9504,7.7422e-05,9.104e-05,0.0,0 STARLINK-5908,1 55951U 23037AP  23096.91667824  .00009104  00000-0  77422-4 0  9993,2 55951  69.9989 124.4102 0003377 266.3878  72.9504 15.69916835  3699,6737.272,91.725,361.412,356.862,0.0
55951.0,STARLINK-5908,PAYLOAD,2023-04-07 14:00:01,15.69971961,0.0003316,69.9995,122.5358,271.9673,234.0129,-0.000641,-0.00076739,0.0,0 STARLINK-5908,1 55951U 23037AP  23097.58334491 -.00076739  00000-0 -64100-3 0  9996,2 55951  69.9995 122.5358 0003316 271.9673 234.0129 15.69971961  1307,6737.114,91.721,361.213,356.745,0.0
55951.0,STARLINK-5908,PAYLOAD,2023-04-07 22:00:00,15.69849517,0.0003425,70.0002,121.5985,262.5973,326.7652,0.0010588,0.00128672,0.0,0 STARLINK-5908,1 55951U 23037AP  23097.91667824  .00128672  00000-0  10588-2 0  9994,2 55951  70.0002 121.5985 0003425 262.5973 326.7652 15.69849517  3846,6737.465,91.729,361.637,357.022,0.0
55951.0,STARLINK-5908,PAYLOAD,2023-04-08 04:40:21,15.69924195,0.0004164,69.9977,120.8179,281.6369,78.4359,2.8525e-05,3.219e-05,0.0,0 STARLINK-5908,1 55951U 23037AP  23098.19468969  .00003219  00000-0  28525-4 0  9995,2 55951  69.9977 120.8179 0004164 281.6369  78.4359 15.69924195  3899,6737.251,91.724,361.921,356.31,0.0
55951.0,STARLINK-5908,PAYLOAD,2023-04-08 10:47:21,15.69940588,0.0003268,69.9977,120.1013,287.1204,72.9634,9.9401e-05,0.00011764,0.0,0 STARLINK-5908,1 55951U 23037AP  23098.44955597  .00011764  00000-0  99401-4 0  9996,2 55951  69.9977 120.1013 0003268 287.1204  72.9634 15.69940588  3936,6737.204,91.723,361.271,356.867,0.0
55951.0,STARLINK-5908,PAYLOAD,2023-04-08 18:26:07,15.69929153,0.0002282,69.9986,119.2044,276.06,84.0336,5.2898e-05,6.153e-05,0.0,0 STARLINK-5908,1 55951U 23037AP  23098.76814276  .00006153  00000-0  52898-4 0  9994,2 55951  69.9986 119.2044 0002282 276.0600  84.0336 15.69929153  3984,6737.237,91.724,360.639,357.564,0.0
55951.0,STARLINK-5908,PAYLOAD,2023-04-09 11:15:23,15.69928848,0.0003071,69.9997,117.2352,266.2491,93.8354,2.6658e-05,2.994e-05,0.0,0 STARLINK-5908,1 55951U 23037AP  23099.46902217  .00002994  00000-0  26658-4 0  9999,2 55951  69.9997 117.2352 0003071 266.2491  93.8354 15.69928848  3755,6737.238,91.724,361.172,357.034,0.0
55951.0,STARLINK-5908,PAYLOAD,2023-04-09 18:54:09,15.69925162,0.0003068,69.9994,116.3395,274.792,85.2925,8.6114e-06,8.23e-06,0.0,0 STARLINK-5908,1 55951U 23037AP  23099.78760742  .00000823  00000-0  86114-5 0  9992,2 55951  69.9994 116.3395 0003068 274.7920  85.2925 15.69925162  4145,6737.248,91.724,361.18,357.046,0.0
55951.0,STARLINK-5908,PAYLOAD,2023-04-10 13:15:10,15.69929909,0.0003296,70.0006,114.1894,265.4955,94.5864,3.0372e-05,3.442e-05,0.0,0 STARLINK-5908,1 55951U 23037AP  23100.55220561  .00003442  00000-0  30372-4 0  9994,2 55951  70.0006 114.1894 0003296 265.4955  94.5864 15.69929909  3923,6737.235,91.724,361.32,356.879,0.0
55951.0,STARLINK-5908,PAYLOAD,2023-04-10 17:50:26,15.69925716,0.0003157,70.0005,113.6521,272.5129,87.5705,5.4148e-06,4.39e-06,0.0,0 STARLINK-5908,1 55951U 23037AP  23100.74335733  .00000439  00000-0  54148-5 0  9994,2 55951  70.0005 113.6521 0003157 272.5129  87.5705 15.69925716  3952,6737.247,91.724,361.238,356.985,0.0
55951.0,STARLINK-5908,PAYLOAD,2023-04-11 12:11:27,15.69931033,0.0003555,70.0005,111.5031,266.9308,93.1481,-1.1918e-05,-1.646e-05,0.0,0 STARLINK-5908,1 55951U 23037AP  23101.50795387 -.00001646  00000-0 -11918-4 0  9994,2 55951  70.0005 111.5031 0003555 266.9308  93.1481 15.69931033  4070,6737.231,91.724,361.491,356.701,0.0
55951.0,STARLINK-5908,PAYLOAD,2023-04-11 18:18:27,15.69929813,0.0003175,70.0008,110.7862,275.1135,84.9698,1.4074e-05,1.48e-05,0.0,0 STARLINK-5908,1 55951U 23037AP  23101.76282375  .00001480  00000-0  14074-4 0  9990,2 55951  70.0008 110.7862 0003175 275.1135  84.9698 15.69929813  4110,6737.235,91.724,361.239,356.961,0.0
55951.0,STARLINK-5908,PAYLOAD,2023-04-12 09:35:59,15.69929213,0.0003297,70.0,108.9939,264.6307,95.4512,8.4292e-06,8.01e-06,0.0,0 STARLINK-5908,1 55951U 23037AP  23102.39999050  .00000801  00000-0  84292-5 0  9991,2 55951  70.0000 108.9939 0003297 264.6307  95.4512 15.69929213  4559,6737.237,91.724,361.323,356.88,0.0
55951.0,STARLINK-5908,PAYLOAD,2023-04-13 10:04:02,15.69915182,0.0002687,70.001,106.1286,282.5633,77.5262,-3.3103e-06,-6.1e-06,0.0,0 STARLINK-5908,1 55951U 23037AP  23103.41946813 -.00000610  00000-0 -33103-5 0  9999,2 55951  70.0010 106.1286 0002687 282.5633  77.5262 15.69915182  4371,6737.277,91.725,360.952,357.331,0.0
55951.0,STARLINK-5908,PAYLOAD,2023-04-13 17:42:47,15.69927939,0.0002926,70.0016,105.2343,272.7061,87.3799,1.9319e-05,2.111e-05,0.0,0 STARLINK-5908,1 55951U 23037AP  23103.73804553  .00002111  00000-0  19319-4 0  9996,2 55951  70.0016 105.2343 0002926 272.7061  87.3799 15.69927939  4763,6737.24,91.724,361.076,357.134,0.0
55951.0,STARLINK-5908,PAYLOAD,2023-04-14 10:32:03,15.69927161,0.0003,70.0013,103.2627,268.1516,91.9336,1.8583e-05,2.023e-05,0.0,0 STARLINK-5908,1 55951U 23037AP  23104.43892794  .00002023  00000-0  18583-4 0  9992,2 55951  70.0013 103.2627 0003000 268.1516  91.9336 15.69927161  4531,6737.242,91.724,361.129,357.086,0.0
55951.0,STARLINK-5908,PAYLOAD,2023-04-15 06:24:50,15.69906579,0.0003423,70.0009,100.9352,257.1231,102.9583,-4.1972e-05,-5.253e-05,0.0,0 STARLINK-5908,1 55951U 23037AP  23105.26724946 -.00005253  00000-0 -41972-4 0  9995,2 55951  70.0009 100.9352 0003423 257.1231 102.9583 15.69906579  5006,6737.301,91.725,361.472,356.86,0.0
55951.0,STARLINK-5908,PAYLOAD,2023-04-15 09:28:20,15.69905848,0.0003126,70.0014,100.5773,255.8026,104.2823,-3.1351e-05,-3.977e-05,0.0,0 STARLINK-5908,1 55951U 23037AP  23105.39468547 -.00003977  00000-0 -31351-4 0  9992,2 55951  70.0014 100.5773 0003126 255.8026 104.2823 15.69905848  4685,6737.303,91.725,361.274,357.062,0.0
55951.0,STARLINK-5908,PAYLOAD,2023-04-15 17:07:06,15.69920628,0.0002988,70.0016,99.6817,265.7587,94.3267,5.7314e-06,4.77e-06,0.0,0 STARLINK-5908,1 55951U 23037AP  23105.71326422  .00000477  00000-0  57314-5 0  9991,2 55951  70.0016  99.6817 0002988 265.7587  94.3267 15.69920628  4731,6737.261,91.724,361.139,357.113,0.0
55951.0,STARLINK-5908,PAYLOAD,2023-04-16 09:56:22,15.69921311,0.0003137,70.0018,97.7111,253.6847,106.4004,8.6704e-06,8.3e-06,0.0,0 STARLINK-5908,1 55951U 23037AP  23106.41414853  .00000830  00000-0  86704-5 0  9993,2 55951  70.0018  97.7111 0003137 253.6847 106.4004 15.69921311  4847,6737.259,91.724,361.238,357.011,0.0
55951.0,STARLINK-5908,PAYLOAD,2023-04-17 02:45:39,15.69920131,0.0003333,70.0018,95.7404,251.3223,108.7611,5.2722e-05,6.13e-05,0.0,0 STARLINK-5908,1 55951U 23037AP  23107.11503591  .00006130  00000-0  52722-4 0  9990,2 55951  70.0018  95.7404 0003333 251.3223 108.7611 15.69920131  5299,6737.263,91.724,361.373,356.882,0.0
55951.0,STARLINK-5908,PAYLOAD,2023-04-17 08:52:39,15.69925475,0.0003241,70.0005,95.0223,245.8476,114.2381,4.7386e-05,5.489e-05,0.0,0 STARLINK-5908,1 55951U 23037AP  23107.36990060  .00005489  00000-0  47386-4 0  9994,2 55951  70.0005  95.0223 0003241 245.8476 114.2381 15.69925475  4991,6737.247,91.724,361.296,356.929,0.0
55951.0,STARLINK-5908,PAYLOAD,2023-04-18 07:48:56,15.69930358,0.0002913,70.0033,92.3359,254.9794,105.1079,1.9872e-05,2.178e-05,0.0,0 STARLINK-5908,1 55951U 23037AP  23108.32564817  .00002178  00000-0  19872-4 0  9999,2 55951  70.0033  92.3359 0002913 254.9794 105.1079 15.69930358  5148,6737.233,91.724,361.061,357.136,0.0
